[{"OBJECT_NAME":"STARLINK-32756","OBJECT_ID":"2025-014T","EPOCH":"2026-03-09T22:58:13.856448","MEAN_MOTION":15.2762737,"ECCENTRICITY":0.00010816,"INCLINATION":42.9997,"RA_OF_ASC_NODE":153.2736,"ARG_OF_PERICENTER":273.9644,"MEAN_ANOMALY":86.1084,"EPHEMERIS_TYPE":0,"CLASSIFICATION_TYPE":"U","NORAD_CAT_ID":62752,"ELEMENT_SET_NO":999,"REV_AT_EPOCH":6329,"BSTAR":0.0011104459,"MEAN_MOTION_DOT":0.00030465,"MEAN_MOTION_DDOT":0},{"OBJECT_NAME":"FENGYUN 1C DEB","OBJECT_ID":"1999-025DCL","EPOCH":"2026-03-08T01:32:38.043744","MEAN_MOTION":14.80481308,"ECCENTRICITY":0.0218035,"INCLINATION":98.8149,"RA_OF_ASC_NODE":16.0796,"ARG_OF_PERICENTER":161.8742,"MEAN_ANOMALY":199.0399,"EPHEMERIS_TYPE":0,"CLASSIFICATION_TYPE":"U","NORAD_CAT_ID":33603,"ELEMENT_SET_NO":999,"REV_AT_EPOCH":119,"BSTAR":0.0001936534,"MEAN_MOTION_DOT":2.149e-5,"MEAN_MOTION_DDOT":0}]
